ONEWEB-0558             
1 56059U 23043P   25068.13682581  .00000112  00000+0  23963-3 0  9991
2 56059  87.9344 336.6924 0002216  69.9434 290.1938 13.21826506 97711
ONEWEB-0559             
1 56060U 23043Q   25068.12577353  .00000052  00000+0  94370-4 0  9996
2 56060  87.9343 336.6888 0002232  82.7204 277.4183 13.21826052 97724
ONEWEB-0566             
1 56061U 23043R   25067.81668838  .00000054  00000+0  99121-4 0  9992
2 56061  87.9342 336.7495 0002375  74.2712 285.8684 13.21828074 96754
ONEWEB-0568             
1 56062U 23043S   25068.13752991  .00000099  00000+0  22594-3 0  9991
2 56062  87.9098 321.4582 0001417  79.0005 281.1286 13.16594987 98694
ONEWEB-0574             
1 56063U 23043T   25067.81038416  .00000083  00000+0  17033-3 0  9990
2 56063  87.9341 336.7407 0001700  74.3471 285.7851 13.21826242 96796
ONEWEB-0575             
1 56064U 23043U   25068.13120340  .00000079  00000+0  17331-3 0  9991
2 56064  87.9100 321.4717 0001448  96.1392 263.9904 13.16594852 98688
ONEWEB-0576             
1 56065U 23043V   25067.73220528 -.00000414  00000+0 -11156-2 0  9999
2 56065  87.9102 321.5422 0001468  83.0492 277.0806 13.16593374 97711
ONEWEB-0577             
1 56066U 23043W   25068.11854014 -.00000013  00000+0 -67260-4 0  9990
2 56066  87.9100 321.4661 0001491 104.6944 255.4352 13.16595414 98705
